CCSDS_OMM_VERS = 2.0
CREATION_DATE  = 
ORIGINATOR     = 

OBJECT_NAME    = QIANFAN-101
OBJECT_ID      = 2025-233L
CENTER_NAME    = EARTH
REF_FRAME      = TEME
TIME_SYSTEM    = UTC
MEAN_ELEMENT_THEORY = SGP/SGP4

EPOCH          = 2025-11-13T06:40:38.117280
MEAN_MOTION    = 14.26645821
ECCENTRICITY   = .00165516
INCLINATION    = 88.9959
RA_OF_ASC_NODE = 65.4208
ARG_OF_PERICENTER = 127.1936
MEAN_ANOMALY   = 233.0772

EPHEMERIS_TYPE = 0
CLASSIFICATION_TYPE = U
NORAD_CAT_ID   = 66043
ELEMENT_SET_NO = 999
REV_AT_EPOCH   = 384
BSTAR          = .30876757E-3
MEAN_MOTION_DOT = .761E-5
MEAN_MOTION_DDOT = 0

CCSDS_OMM_VERS = 2.0
CREATION_DATE  = 
ORIGINATOR     = 

OBJECT_NAME    = QIANFAN-102
OBJECT_ID      = 2025-233M
CENTER_NAME    = EARTH
REF_FRAME      = TEME
TIME_SYSTEM    = UTC
MEAN_ELEMENT_THEORY = SGP/SGP4

EPOCH          = 2025-11-13T01:44:23.715744
MEAN_MOTION    = 14.26238930
ECCENTRICITY   = .00168765
INCLINATION    = 88.9958
RA_OF_ASC_NODE = 65.4455
ARG_OF_PERICENTER = 129.6722
MEAN_ANOMALY   = 230.5963

EPHEMERIS_TYPE = 0
CLASSIFICATION_TYPE = U
NORAD_CAT_ID   = 66044
ELEMENT_SET_NO = 999
REV_AT_EPOCH   = 381
BSTAR          = .63597416E-3
MEAN_MOTION_DOT = .154E-4
MEAN_MOTION_DDOT = 0

CCSDS_OMM_VERS = 2.0
CREATION_DATE  = 
ORIGINATOR     = 

OBJECT_NAME    = QIANFAN-103
OBJECT_ID      = 2025-233N
CENTER_NAME    = EARTH
REF_FRAME      = TEME
TIME_SYSTEM    = UTC
MEAN_ELEMENT_THEORY = SGP/SGP4

EPOCH          = 2025-11-13T00:03:12.790368
MEAN_MOTION    = 14.25033244
ECCENTRICITY   = .00175534
INCLINATION    = 88.9881
RA_OF_ASC_NODE = 65.4680
ARG_OF_PERICENTER = 139.0800
MEAN_ANOMALY   = 221.1714

EPHEMERIS_TYPE = 0
CLASSIFICATION_TYPE = U
NORAD_CAT_ID   = 66045
ELEMENT_SET_NO = 999
REV_AT_EPOCH   = 380
BSTAR          = .51127684E-3
MEAN_MOTION_DOT = .1213E-4
MEAN_MOTION_DDOT = 0

CCSDS_OMM_VERS = 2.0
CREATION_DATE  = 
ORIGINATOR     = 

OBJECT_NAME    = QIANFAN-104
OBJECT_ID      = 2025-233P
CENTER_NAME    = EARTH
REF_FRAME      = TEME
TIME_SYSTEM    = UTC
MEAN_ELEMENT_THEORY = SGP/SGP4

EPOCH          = 2025-11-13T00:02:13.272864
MEAN_MOTION    = 14.26288685
ECCENTRICITY   = .0016252
INCLINATION    = 88.9958
RA_OF_ASC_NODE = 65.4537
ARG_OF_PERICENTER = 130.9489
MEAN_ANOMALY   = 229.3115

EPHEMERIS_TYPE = 0
CLASSIFICATION_TYPE = U
NORAD_CAT_ID   = 66046
ELEMENT_SET_NO = 999
REV_AT_EPOCH   = 380
BSTAR          = .63410216E-3
MEAN_MOTION_DOT = .1537E-4
MEAN_MOTION_DDOT = 0

CCSDS_OMM_VERS = 2.0
CREATION_DATE  = 
ORIGINATOR     = 

OBJECT_NAME    = QIANFAN-105
OBJECT_ID      = 2025-233Q
CENTER_NAME    = EARTH
REF_FRAME      = TEME
TIME_SYSTEM    = UTC
MEAN_ELEMENT_THEORY = SGP/SGP4

EPOCH          = 2025-11-12T15:36:12.540960
MEAN_MOTION    = 14.26106256
ECCENTRICITY   = .00162221
INCLINATION    = 88.9956
RA_OF_ASC_NODE = 65.4933
ARG_OF_PERICENTER = 131.4025
MEAN_ANOMALY   = 228.8566

EPHEMERIS_TYPE = 0
CLASSIFICATION_TYPE = U
NORAD_CAT_ID   = 66047
ELEMENT_SET_NO = 999
REV_AT_EPOCH   = 375
BSTAR          = .25557457E-3
MEAN_MOTION_DOT = .626E-5
MEAN_MOTION_DDOT = 0

CCSDS_OMM_VERS = 2.0
CREATION_DATE  = 
ORIGINATOR     = 

OBJECT_NAME    = QIANFAN-106
OBJECT_ID      = 2025-233R
CENTER_NAME    = EARTH
REF_FRAME      = TEME
TIME_SYSTEM    = UTC
MEAN_ELEMENT_THEORY = SGP/SGP4

EPOCH          = 2025-11-13T01:42:45.273312
MEAN_MOTION    = 14.25398527
ECCENTRICITY   = .00157295
INCLINATION    = 88.9949
RA_OF_ASC_NODE = 65.4439
ARG_OF_PERICENTER = 128.5673
MEAN_ANOMALY   = 231.6932

EPHEMERIS_TYPE = 0
CLASSIFICATION_TYPE = U
NORAD_CAT_ID   = 66048
ELEMENT_SET_NO = 999
REV_AT_EPOCH   = 381
BSTAR          = .5907708E-3
MEAN_MOTION_DOT = .1409E-4
MEAN_MOTION_DDOT = 0

CCSDS_OMM_VERS = 2.0
CREATION_DATE  = 
ORIGINATOR     = 

OBJECT_NAME    = QIANFAN-107
OBJECT_ID      = 2025-233S
CENTER_NAME    = EARTH
REF_FRAME      = TEME
TIME_SYSTEM    = UTC
MEAN_ELEMENT_THEORY = SGP/SGP4

EPOCH          = 2025-11-12T17:16:46.838784
MEAN_MOTION    = 14.26357254
ECCENTRICITY   = .00170663
INCLINATION    = 88.9957
RA_OF_ASC_NODE = 65.4856
ARG_OF_PERICENTER = 129.7240
MEAN_ANOMALY   = 230.5461

EPHEMERIS_TYPE = 0
CLASSIFICATION_TYPE = U
NORAD_CAT_ID   = 66049
ELEMENT_SET_NO = 999
REV_AT_EPOCH   = 376
BSTAR          = .55925436E-3
MEAN_MOTION_DOT = .1359E-4
MEAN_MOTION_DDOT = 0

CCSDS_OMM_VERS = 2.0
CREATION_DATE  = 
ORIGINATOR     = 

OBJECT_NAME    = QIANFAN-108
OBJECT_ID      = 2025-233T
CENTER_NAME    = EARTH
REF_FRAME      = TEME
TIME_SYSTEM    = UTC
MEAN_ELEMENT_THEORY = SGP/SGP4

EPOCH          = 2025-11-12T15:35:23.757792
MEAN_MOTION    = 14.26118462
ECCENTRICITY   = .00168349
INCLINATION    = 88.9956
RA_OF_ASC_NODE = 65.4930
ARG_OF_PERICENTER = 130.7716
MEAN_ANOMALY   = 229.4941

EPHEMERIS_TYPE = 0
CLASSIFICATION_TYPE = U
NORAD_CAT_ID   = 66050
ELEMENT_SET_NO = 999
REV_AT_EPOCH   = 375
BSTAR          = .37380175E-3
MEAN_MOTION_DOT = .909E-5
MEAN_MOTION_DDOT = 0

CCSDS_OMM_VERS = 2.0
CREATION_DATE  = 
ORIGINATOR     = 

OBJECT_NAME    = CZ-6A R/B
OBJECT_ID      = 2025-233U
CENTER_NAME    = EARTH
REF_FRAME      = TEME
TIME_SYSTEM    = UTC
MEAN_ELEMENT_THEORY = SGP/SGP4

EPOCH          = 2025-11-13T06:23:32.523360
MEAN_MOTION    = 14.57024273
ECCENTRICITY   = .00848532
INCLINATION    = 89.0298
RA_OF_ASC_NODE = 65.3378
ARG_OF_PERICENTER = 27.9425
MEAN_ANOMALY   = 332.6302

EPHEMERIS_TYPE = 0
CLASSIFICATION_TYPE = U
NORAD_CAT_ID   = 66051
ELEMENT_SET_NO = 999
REV_AT_EPOCH   = 392
BSTAR          = .17495695E-3
MEAN_MOTION_DOT = .844E-5
MEAN_MOTION_DDOT = 0

CCSDS_OMM_VERS = 2.0
CREATION_DATE  = 
ORIGINATOR     = 

OBJECT_NAME    = 2025-234A
OBJECT_ID      = 2025-234A
CENTER_NAME    = EARTH
REF_FRAME      = TEME
TIME_SYSTEM    = UTC
MEAN_ELEMENT_THEORY = SGP/SGP4

EPOCH          = 2025-11-13T05:42:24.776928
MEAN_MOTION    = 15.23193949
ECCENTRICITY   = .00147204
INCLINATION    = 97.4604
RA_OF_ASC_NODE = 22.7163
ARG_OF_PERICENTER = 197.2843
MEAN_ANOMALY   = 162.7895

EPHEMERIS_TYPE = 0
CLASSIFICATION_TYPE = U
NORAD_CAT_ID   = 66053
ELEMENT_SET_NO = 999
REV_AT_EPOCH   = 382
BSTAR          = .25472738E-2
MEAN_MOTION_DOT = .60785E-3
MEAN_MOTION_DDOT = 0

CCSDS_OMM_VERS = 2.0
CREATION_DATE  = 
ORIGINATOR     = 

OBJECT_NAME    = 2025-234B
OBJECT_ID      = 2025-234B
CENTER_NAME    = EARTH
REF_FRAME      = TEME
TIME_SYSTEM    = UTC
MEAN_ELEMENT_THEORY = SGP/SGP4

EPOCH          = 2025-11-13T06:05:37.803264
MEAN_MOTION    = 15.21386807
ECCENTRICITY   = .00146841
INCLINATION    = 97.5033
RA_OF_ASC_NODE = 22.8300
ARG_OF_PERICENTER = 188.5522
MEAN_ANOMALY   = 171.5466

EPHEMERIS_TYPE = 0
CLASSIFICATION_TYPE = U
NORAD_CAT_ID   = 66054
ELEMENT_SET_NO = 999
REV_AT_EPOCH   = 382
BSTAR          = .67371001E-3
MEAN_MOTION_DOT = .151E-3
MEAN_MOTION_DDOT = 0

CCSDS_OMM_VERS = 2.0
CREATION_DATE  = 
ORIGINATOR     = 

OBJECT_NAME    = 2025-234C
OBJECT_ID      = 2025-234C
CENTER_NAME    = EARTH
REF_FRAME      = TEME
TIME_SYSTEM    = UTC
MEAN_ELEMENT_THEORY = SGP/SGP4

EPOCH          = 2025-11-13T06:02:38.780736
MEAN_MOTION    = 15.21514376
ECCENTRICITY   = .00153444
INCLINATION    = 97.4556
RA_OF_ASC_NODE = 22.6821
ARG_OF_PERICENTER = 190.3897
MEAN_ANOMALY   = 169.7024

EPHEMERIS_TYPE = 0
CLASSIFICATION_TYPE = U
NORAD_CAT_ID   = 66055
ELEMENT_SET_NO = 999
REV_AT_EPOCH   = 382
BSTAR          = .66040177E-3
MEAN_MOTION_DOT = .1486E-3
MEAN_MOTION_DDOT = 0

