QIANFAN-101             
1 66043U 25233L   25317.27821895  .00000761  00000+0  30877-3 0  9995
2 66043  88.9959  65.4208 0016551 127.1936 233.0772 14.26645821  3849
QIANFAN-102             
1 66044U 25233M   25317.07249671  .00001540  00000+0  63597-3 0  9991
2 66044  88.9958  65.4455 0016876 129.6722 230.5963 14.26238930  3813
QIANFAN-103             
1 66045U 25233N   25317.00223137  .00001213  00000+0  51128-3 0  9998
2 66045  88.9881  65.4680 0017553 139.0800 221.1714 14.25033244  3803
QIANFAN-104             
1 66046U 25233P   25317.00154251  .00001537  00000+0  63410-3 0  9995
2 66046  88.9958  65.4537 0016252 130.9489 229.3115 14.26288685  3805
QIANFAN-105             
1 66047U 25233Q   25316.65014515  .00000626  00000+0  25557-3 0  9992
2 66047  88.9956  65.4933 0016222 131.4025 228.8566 14.26106256  3754
QIANFAN-106             
1 66048U 25233R   25317.07135733  .00001409  00000+0  59077-3 0  9990
2 66048  88.9949  65.4439 0015729 128.5673 231.6932 14.25398527  3814
QIANFAN-107             
1 66049U 25233S   25316.71998656  .00001359  00000+0  55925-3 0  9994
2 66049  88.9957  65.4856 0017066 129.7240 230.5461 14.26357254  3768
QIANFAN-108             
1 66050U 25233T   25316.64958053  .00000909  00000+0  37380-3 0  9990
2 66050  88.9956  65.4930 0016834 130.7716 229.4941 14.26118462  3759
CZ-6A R/B               
1 66051U 25233U   25317.26634865  .00000844  00000+0  17496-3 0  9996
2 66051  89.0298  65.3378 0084853  27.9425 332.6302 14.57024273  3923
2025-234A               
1 66053U 25234A   25317.23778677  .00060785  00000+0  25473-2 0  9999
2 66053  97.4604  22.7163 0014720 197.2843 162.7895 15.23193949  3828
2025-234B               
1 66054U 25234B   25317.25390976  .00015100  00000+0  67371-3 0  9999
2 66054  97.5033  22.8300 0014684 188.5522 171.5466 15.21386807  3823
2025-234C               
1 66055U 25234C   25317.25183774  .00014860  00000+0  66040-3 0  9990
2 66055  97.4556  22.6821 0015344 190.3897 169.7024 15.21514376  3822
